{"type": "FeatureCollection", "features": [{"type": "Feature", "properties": {"norad_id": 32275, "name": "COSMOS 2433 (720)", "group": "glo-ops", "lat": -62.31759971519697, "lon": -158.5988756857463, "alt_km": 19123.002434787042, "timestamp": "2025-12-21T09:37:22.915480+00:00", "meta": {"OBJECT_NAME": "COSMOS 2433 (720)", "OBJECT_ID": "2007-052A", "EPOCH": "2025-12-21T01:36:08.610912", "MEAN_MOTION": 2.13104226, "ECCENTRICITY": 0.0005187, "INCLINATION": 65.6786, "RA_OF_ASC_NODE": 321.9257, "ARG_OF_PERICENTER": 255.4545, "MEAN_ANOMALY": 104.4812, "EPHEMERIS_TYPE": 0, "CLASSIFICATION_TYPE": "U", "NORAD_CAT_ID": 32275, "ELEMENT_SET_NO": 999, "REV_AT_EPOCH": 14126, "BSTAR": 0, "MEAN_MOTION_DOT": -4.8e-07, "MEAN_MOTION_DDOT": 0}, "tle": {"line1": "1 32275U 07052A   25355.06676633 -.00000048  00000+0  00000+0 0  9991", "line2": "2 32275  65.6786 321.9257 0005187 255.4545 104.4812  2.13104226141264"}}, "geometry": {"type": "Point", "coordinates": [-158.5988756857463, -62.31759971519697]}}, {"type": "Feature", "properties": {"norad_id": 32276, "name": "COSMOS 2432 (719)", "group": "glo-ops", "lat": -18.79604743600343, "lon": 150.86551789389702, "alt_km": 19144.215351818824, "timestamp": "2025-12-21T09:37:22.915504+00:00", "meta": {"OBJECT_NAME": "COSMOS 2432 (719)", "OBJECT_ID": "2007-052B", "EPOCH": "2025-12-21T05:56:02.961600", "MEAN_MOTION": 2.13103424, "ECCENTRICITY": 0.0011337, "INCLINATION": 65.6945, "RA_OF_ASC_NODE": 322.044, "ARG_OF_PERICENTER": 314.296, "MEAN_ANOMALY": 128.5462, "EPHEMERIS_TYPE": 0, "CLASSIFICATION_TYPE": "U", "NORAD_CAT_ID": 32276, "ELEMENT_SET_NO": 999, "REV_AT_EPOCH": 14129, "BSTAR": 0, "MEAN_MOTION_DOT": -4.7e-07, "MEAN_MOTION_DDOT": 0}, "tle": {"line1": "1 32276U 07052B   25355.24725650 -.00000047  00000+0  00000+0 0  9995", "line2": "2 32276  65.6945 322.0440 0011337 314.2960 128.5462  2.13103424141297"}}, "geometry": {"type": "Point", "coordinates": [150.86551789389702, -18.79604743600343]}}, {"type": "Feature", "properties": {"norad_id": 32393, "name": "COSMOS 2434 (721)", "group": "glo-ops", "lat": 29.42911992704882, "lon": 2.1534068192891542, "alt_km": 19123.461350070498, "timestamp": "2025-12-21T09:37:22.915519+00:00", "meta": {"OBJECT_NAME": "COSMOS 2434 (721)", "OBJECT_ID": "2007-065A", "EPOCH": "2025-12-20T12:03:15.367680", "MEAN_MOTION": 2.13101459, "ECCENTRICITY": 0.00047811, "INCLINATION": 64.3153, "RA_OF_ASC_NODE": 197.9412, "ARG_OF_PERICENTER": 71.786, "MEAN_ANOMALY": 105.6785, "EPHEMERIS_TYPE": 0, "CLASSIFICATION_TYPE": "U", "NORAD_CAT_ID": 32393, "ELEMENT_SET_NO": 999, "REV_AT_EPOCH": 13996, "BSTAR": 0, "MEAN_MOTION_DOT": 1e-06, "MEAN_MOTION_DDOT": 0}, "tle": {"line1": "1 32393U 07065A   25354.50226120  .00000100  00000+0  00000+0 0  9994", "line2": "2 32393  64.3153 197.9412 0004781  71.7860 105.6785  2.13101459139962"}}, "geometry": {"type": "Point", "coordinates": [2.1534068192891542, 29.42911992704882]}}, {"type": "Feature", "properties": {"norad_id": 32395, "name": "COSMOS 2436 (723)", "group": "glo-ops", "lat": -62.642636721921896, "lon": 129.50890247894858, "alt_km": 19136.744410585285, "timestamp": "2025-12-21T09:37:22.915547+00:00", "meta": {"OBJECT_NAME": "COSMOS 2436 (723)", "OBJECT_ID": "2007-065C", "EPOCH": "2025-12-21T05:24:13.396320", "MEAN_MOTION": 2.13100316, "ECCENTRICITY": 0.0017785, "INCLINATION": 64.3243, "RA_OF_ASC_NODE": 197.9873, "ARG_OF_PERICENTER": 10.0202, "MEAN_ANOMALY": 135.0649, "EPHEMERIS_TYPE": 0, "CLASSIFICATION_TYPE": "U", "NORAD_CAT_ID": 32395, "ELEMENT_SET_NO": 999, "REV_AT_EPOCH": 13993, "BSTAR": 0, "MEAN_MOTION_DOT": 9.7e-07, "MEAN_MOTION_DDOT": 0}, "tle": {"line1": "1 32395U 07065C   25355.22515505  .00000097  00000+0  00000+0 0  9999", "line2": "2 32395  64.3243 197.9873 0017785  10.0202 135.0649  2.13100316139933"}}, "geometry": {"type": "Point", "coordinates": [129.50890247894858, -62.642636721921896]}}, {"type": "Feature", "properties": {"norad_id": 36111, "name": "COSMOS 2456 (730)", "group": "glo-ops", "lat": -48.65495456524396, "lon": 44.93727307010765, "alt_km": 19127.09705393786, "timestamp": "2025-12-21T09:37:22.915562+00:00", "meta": {"OBJECT_NAME": "COSMOS 2456 (730)", "OBJECT_ID": "2009-070A", "EPOCH": "2025-12-20T03:13:18.516576", "MEAN_MOTION": 2.13103685, "ECCENTRICITY": 0.00033011, "INCLINATION": 64.904, "RA_OF_ASC_NODE": 77.0852, "ARG_OF_PERICENTER": 296.9564, "MEAN_ANOMALY": 115.2996, "EPHEMERIS_TYPE": 0, "CLASSIFICATION_TYPE": "U", "NORAD_CAT_ID": 36111, "ELEMENT_SET_NO": 999, "REV_AT_EPOCH": 12461, "BSTAR": 0, "MEAN_MOTION_DOT": -2.2e-07, "MEAN_MOTION_DDOT": 0}, "tle": {"line1": "1 36111U 09070A   25354.13424209 -.00000022  00000+0  00000+0 0  9995", "line2": "2 36111  64.9040  77.0852 0003301 296.9564 115.2996  2.13103685124610"}}, "geometry": {"type": "Point", "coordinates": [44.93727307010765, -48.65495456524396]}}, {"type": "Feature", "properties": {"norad_id": 36112, "name": "COSMOS 2457 (733)", "group": "glo-ops", "lat": 60.025465287778864, "lon": 131.1627642381147, "alt_km": 19123.247388380783, "timestamp": "2025-12-21T09:37:22.915574+00:00", "meta": {"OBJECT_NAME": "COSMOS 2457 (733)", "OBJECT_ID": "2009-070B", "EPOCH": "2025-12-21T01:50:33.569952", "MEAN_MOTION": 2.13101099, "ECCENTRICITY": 0.0004535, "INCLINATION": 64.8901, "RA_OF_ASC_NODE": 76.9001, "ARG_OF_PERICENTER": 162.2695, "MEAN_ANOMALY": 22.1351, "EPHEMERIS_TYPE": 0, "CLASSIFICATION_TYPE": "U", "NORAD_CAT_ID": 36112, "ELEMENT_SET_NO": 999, "REV_AT_EPOCH": 12463, "BSTAR": 0, "MEAN_MOTION_DOT": -1.4e-07, "MEAN_MOTION_DDOT": 0}, "tle": {"line1": "1 36112U 09070B   25355.07677743 -.00000014  00000+0  00000+0 0  9994", "line2": "2 36112  64.8901  76.9001 0004535 162.2695  22.1351  2.13101099124630"}}, "geometry": {"type": "Point", "coordinates": [131.1627642381147, 60.025465287778864]}}, {"type": "Feature", "properties": {"norad_id": 36402, "name": "COSMOS 2460 (732)", "group": "glo-ops", "lat": 60.371562016946434, "lon": 13.63711089782731, "alt_km": 19128.739255552922, "timestamp": "2025-12-21T09:37:22.915586+00:00", "meta": {"OBJECT_NAME": "COSMOS 2460 (732)", "OBJECT_ID": "2010-007C", "EPOCH": "2025-12-19T13:42:43.098624", "MEAN_MOTION": 2.131063, "ECCENTRICITY": 0.0002543, "INCLINATION": 65.526, "RA_OF_ASC_NODE": 320.5423, "ARG_OF_PERICENTER": 279.9868, "MEAN_ANOMALY": 189.087, "EPHEMERIS_TYPE": 0, "CLASSIFICATION_TYPE": "U", "NORAD_CAT_ID": 36402, "ELEMENT_SET_NO": 999, "REV_AT_EPOCH": 12290, "BSTAR": 0, "MEAN_MOTION_DOT": -5.7e-07, "MEAN_MOTION_DDOT": 0}, "tle": {"line1": "1 36402U 10007C   25353.57133216 -.00000057  00000+0  00000+0 0  9990", "line2": "2 36402  65.5260 320.5423 0002543 279.9868 189.0870  2.13106300122906"}}, "geometry": {"type": "Point", "coordinates": [13.63711089782731, 60.371562016946434]}}, {"type": "Feature", "properties": {"norad_id": 37867, "name": "COSMOS 2476 (744)", "group": "glo-ops", "lat": -29.01376223885575, "lon": -86.25353714984347, "alt_km": 19076.266065355456, "timestamp": "2025-12-21T09:37:22.915598+00:00", "meta": {"OBJECT_NAME": "COSMOS 2476 (744)", "OBJECT_ID": "2011-064A", "EPOCH": "2025-12-19T06:05:26.552256", "MEAN_MOTION": 2.13103916, "ECCENTRICITY": 0.0024321, "INCLINATION": 65.1662, "RA_OF_ASC_NODE": 78.9509, "ARG_OF_PERICENTER": 234.6548, "MEAN_ANOMALY": 130.4776, "EPHEMERIS_TYPE": 0, "CLASSIFICATION_TYPE": "U", "NORAD_CAT_ID": 37867, "ELEMENT_SET_NO": 999, "REV_AT_EPOCH": 10993, "BSTAR": 0, "MEAN_MOTION_DOT": -3e-07, "MEAN_MOTION_DDOT": 0}, "tle": {"line1": "1 37867U 11064A   25353.25377954 -.00000030  00000+0  00000+0 0  9995", "line2": "2 37867  65.1662  78.9509 0024321 234.6548 130.4776  2.13103916109937"}}, "geometry": {"type": "Point", "coordinates": [-86.25353714984347, -29.01376223885575]}}, {"type": "Feature", "properties": {"norad_id": 37868, "name": "COSMOS 2477 (745)", "group": "glo-ops", "lat": 29.930330449431814, "lon": 94.39873771722952, "alt_km": 19177.10693981022, "timestamp": "2025-12-21T09:37:22.915625+00:00", "meta": {"OBJECT_NAME": "COSMOS 2477 (745)", "OBJECT_ID": "2011-064B", "EPOCH": "2025-12-21T01:57:05.668704", "MEAN_MOTION": 2.13102963, "ECCENTRICITY": 0.002139, "INCLINATION": 65.1733, "RA_OF_ASC_NODE": 78.9666, "ARG_OF_PERICENTER": 235.2329, "MEAN_ANOMALY": 272.8315, "EPHEMERIS_TYPE": 0, "CLASSIFICATION_TYPE": "U", "NORAD_CAT_ID": 37868, "ELEMENT_SET_NO": 999, "REV_AT_EPOCH": 10996, "BSTAR": 0, "MEAN_MOTION_DOT": -1.2e-07, "MEAN_MOTION_DDOT": 0}, "tle": {"line1": "1 37868U 11064B   25355.08131561 -.00000012  00000+0  00000+0 0  9991", "line2": "2 37868  65.1733  78.9666 0021390 235.2329 272.8315  2.13102963109962"}}, "geometry": {"type": "Point", "coordinates": [94.39873771722952, 29.930330449431814]}}, {"type": "Feature", "properties": {"norad_id": 37869, "name": "COSMOS 2475 (743)", "group": "glo-ops", "lat": -9.567043225653054, "lon": 74.52376968687688, "alt_km": 19144.087027117548, "timestamp": "2025-12-21T09:37:22.915637+00:00", "meta": {"OBJECT_NAME": "COSMOS 2475 (743)", "OBJECT_ID": "2011-064C", "EPOCH": "2025-12-19T14:11:24.597888", "MEAN_MOTION": 2.13101629, "ECCENTRICITY": 0.0026449, "INCLINATION": 65.1796, "RA_OF_ASC_NODE": 79.0372, "ARG_OF_PERICENTER": 248.8375, "MEAN_ANOMALY": 152.0175, "EPHEMERIS_TYPE": 0, "CLASSIFICATION_TYPE": "U", "NORAD_CAT_ID": 37869, "ELEMENT_SET_NO": 999, "REV_AT_EPOCH": 10994, "BSTAR": 0, "MEAN_MOTION_DOT": -2.6e-07, "MEAN_MOTION_DDOT": 0}, "tle": {"line1": "1 37869U 11064C   25353.59125692 -.00000026  00000+0  00000+0 0  9999", "line2": "2 37869  65.1796  79.0372 0026449 248.8375 152.0175  2.13101629109948"}}, "geometry": {"type": "Point", "coordinates": [74.52376968687688, -9.567043225653054]}}]}